[{"OBJECT_NAME":"STARLINK-31654","OBJECT_ID":"2024-098A","EPOCH":"2026-03-09T21:30:44.538912","MEAN_MOTION":15.27576821,"ECCENTRICITY":9.601e-5,"INCLINATION":43.0009,"RA_OF_ASC_NODE":269.4004,"ARG_OF_PERICENTER":275.2408,"MEAN_ANOMALY":84.8334,"EPHEMERIS_TYPE":0,"CLASSIFICATION_TYPE":"U","NORAD_CAT_ID":59858,"ELEMENT_SET_NO":999,"REV_AT_EPOCH":10195,"BSTAR":5.8677594e-5,"MEAN_MOTION_DOT":1.353e-5,"MEAN_MOTION_DDOT":0},{"OBJECT_NAME":"FLOCK 4G-31","OBJECT_ID":"2025-009AV","EPOCH":"2026-03-09T17:55:44.365728","MEAN_MOTION":15.26963037,"ECCENTRICITY":5.975e-5,"INCLINATION":97.4007,"RA_OF_ASC_NODE":151.027,"ARG_OF_PERICENTER":42.5998,"MEAN_ANOMALY":317.5288,"EPHEMERIS_TYPE":0,"CLASSIFICATION_TYPE":"U","NORAD_CAT_ID":62652,"ELEMENT_SET_NO":999,"REV_AT_EPOCH":6372,"BSTAR":0.00048078603,"MEAN_MOTION_DOT":0.00012662,"MEAN_MOTION_DDOT":0}]
